[{"OBJECT_NAME":"ICEYE-X57","OBJECT_ID":"2025-135BC","EPOCH":"2026-03-09T22:18:00.647424","MEAN_MOTION":15.00870088,"ECCENTRICITY":0.00021914,"INCLINATION":97.7623,"RA_OF_ASC_NODE":185.2979,"ARG_OF_PERICENTER":76.2741,"MEAN_ANOMALY":283.8727,"EPHEMERIS_TYPE":0,"CLASSIFICATION_TYPE":"U","NORAD_CAT_ID":64578,"ELEMENT_SET_NO":999,"REV_AT_EPOCH":3913,"BSTAR":0.00060837081,"MEAN_MOTION_DOT":7.683e-5,"MEAN_MOTION_DDOT":0},{"OBJECT_NAME":"KUIPER-00139","OBJECT_ID":"2025-217D","EPOCH":"2026-03-09T07:26:02.378400","MEAN_MOTION":15.01890214,"ECCENTRICITY":0.00071199,"INCLINATION":51.8865,"RA_OF_ASC_NODE":35.54,"ARG_OF_PERICENTER":318.901,"MEAN_ANOMALY":41.1425,"EPHEMERIS_TYPE":0,"CLASSIFICATION_TYPE":"U","NORAD_CAT_ID":65765,"ELEMENT_SET_NO":999,"REV_AT_EPOCH":2495,"BSTAR":0.00087196011,"MEAN_MOTION_DOT":0.00011274,"MEAN_MOTION_DDOT":0}]
